CCSDS_OMM_VERS = 2.0
CREATION_DATE  = 
ORIGINATOR     = 

OBJECT_NAME    = ISS (ZARYA)
OBJECT_ID      = 1998-067A
CENTER_NAME    = EARTH
REF_FRAME      = TEME
TIME_SYSTEM    = UTC
MEAN_ELEMENT_THEORY = SGP/SGP4

EPOCH          = 2026-01-12T22:49:23.132352
MEAN_MOTION    = 15.49263082
ECCENTRICITY   = .00077162
INCLINATION    = 51.6330
RA_OF_ASC_NODE = 347.9568
ARG_OF_PERICENTER = 11.8640
MEAN_ANOMALY   = 348.2529

EPHEMERIS_TYPE = 0
CLASSIFICATION_TYPE = U
NORAD_CAT_ID   = 25544
ELEMENT_SET_NO = 999
REV_AT_EPOCH   = 54769
BSTAR          = .14124674E-3
MEAN_MOTION_DOT = .7414E-4
MEAN_MOTION_DDOT = 0

CCSDS_OMM_VERS = 2.0
CREATION_DATE  = 
ORIGINATOR     = 

OBJECT_NAME    = CSS (TIANHE)
OBJECT_ID      = 2021-035A
CENTER_NAME    = EARTH
REF_FRAME      = TEME
TIME_SYSTEM    = UTC
MEAN_ELEMENT_THEORY = SGP/SGP4

EPOCH          = 2026-01-12T19:57:11.090304
MEAN_MOTION    = 15.60461132
ECCENTRICITY   = .00115103
INCLINATION    = 41.4654
RA_OF_ASC_NODE = 187.7636
ARG_OF_PERICENTER = 272.9860
MEAN_ANOMALY   = 86.9661

EPHEMERIS_TYPE = 0
CLASSIFICATION_TYPE = U
NORAD_CAT_ID   = 48274
ELEMENT_SET_NO = 999
REV_AT_EPOCH   = 26888
BSTAR          = .21248408E-3
MEAN_MOTION_DOT = .17741E-3
MEAN_MOTION_DDOT = 0

CCSDS_OMM_VERS = 2.0
CREATION_DATE  = 
ORIGINATOR     = 

OBJECT_NAME    = ISS (NAUKA)
OBJECT_ID      = 2021-066A
CENTER_NAME    = EARTH
REF_FRAME      = TEME
TIME_SYSTEM    = UTC
MEAN_ELEMENT_THEORY = SGP/SGP4

EPOCH          = 2026-01-12T22:49:23.132352
MEAN_MOTION    = 15.49263082
ECCENTRICITY   = .00077162
INCLINATION    = 51.6330
RA_OF_ASC_NODE = 347.9568
ARG_OF_PERICENTER = 11.8640
MEAN_ANOMALY   = 348.2529

EPHEMERIS_TYPE = 0
CLASSIFICATION_TYPE = U
NORAD_CAT_ID   = 49044
ELEMENT_SET_NO = 999
REV_AT_EPOCH   = 23044
BSTAR          = .14124674E-3
MEAN_MOTION_DOT = .7414E-4
MEAN_MOTION_DDOT = 0

CCSDS_OMM_VERS = 2.0
CREATION_DATE  = 
ORIGINATOR     = 

OBJECT_NAME    = FREGAT DEB
OBJECT_ID      = 2011-037PF
CENTER_NAME    = EARTH
REF_FRAME      = TEME
TIME_SYSTEM    = UTC
MEAN_ELEMENT_THEORY = SGP/SGP4

EPOCH          = 2026-01-12T13:44:27.735936
MEAN_MOTION    = 12.35617232
ECCENTRICITY   = .08880301
INCLINATION    = 51.6020
RA_OF_ASC_NODE = 108.2072
ARG_OF_PERICENTER = 291.8373
MEAN_ANOMALY   = 59.0368

EPHEMERIS_TYPE = 0
CLASSIFICATION_TYPE = U
NORAD_CAT_ID   = 49271
ELEMENT_SET_NO = 999
REV_AT_EPOCH   = 20574
BSTAR          = .74549564E-1
MEAN_MOTION_DOT = .36999E-3
MEAN_MOTION_DDOT = 0

CCSDS_OMM_VERS = 2.0
CREATION_DATE  = 
ORIGINATOR     = 

OBJECT_NAME    = CSS (WENTIAN)
OBJECT_ID      = 2022-085A
CENTER_NAME    = EARTH
REF_FRAME      = TEME
TIME_SYSTEM    = UTC
MEAN_ELEMENT_THEORY = SGP/SGP4

EPOCH          = 2026-01-12T19:57:11.090304
MEAN_MOTION    = 15.60461132
ECCENTRICITY   = .00115103
INCLINATION    = 41.4654
RA_OF_ASC_NODE = 187.7636
ARG_OF_PERICENTER = 272.9860
MEAN_ANOMALY   = 86.9661

EPHEMERIS_TYPE = 0
CLASSIFICATION_TYPE = U
NORAD_CAT_ID   = 53239
ELEMENT_SET_NO = 999
REV_AT_EPOCH   = 17384
BSTAR          = .21248408E-3
MEAN_MOTION_DOT = .17741E-3
MEAN_MOTION_DDOT = 0

CCSDS_OMM_VERS = 2.0
CREATION_DATE  = 
ORIGINATOR     = 

OBJECT_NAME    = CSS (MENGTIAN)
OBJECT_ID      = 2022-143A
CENTER_NAME    = EARTH
REF_FRAME      = TEME
TIME_SYSTEM    = UTC
MEAN_ELEMENT_THEORY = SGP/SGP4

EPOCH          = 2026-01-12T19:57:11.090304
MEAN_MOTION    = 15.60461132
ECCENTRICITY   = .00115103
INCLINATION    = 41.4654
RA_OF_ASC_NODE = 187.7636
ARG_OF_PERICENTER = 272.9860
MEAN_ANOMALY   = 86.9661

EPHEMERIS_TYPE = 0
CLASSIFICATION_TYPE = U
NORAD_CAT_ID   = 54216
ELEMENT_SET_NO = 999
REV_AT_EPOCH   = 15864
BSTAR          = .21248408E-3
MEAN_MOTION_DOT = .17741E-3
MEAN_MOTION_DDOT = 0

CCSDS_OMM_VERS = 2.0
CREATION_DATE  = 
ORIGINATOR     = 

OBJECT_NAME    = SHENZHOU-20 (SZ-20)
OBJECT_ID      = 2025-082A
CENTER_NAME    = EARTH
REF_FRAME      = TEME
TIME_SYSTEM    = UTC
MEAN_ELEMENT_THEORY = SGP/SGP4

EPOCH          = 2026-01-12T19:57:11.090304
MEAN_MOTION    = 15.60461132
ECCENTRICITY   = .00115103
INCLINATION    = 41.4654
RA_OF_ASC_NODE = 187.7636
ARG_OF_PERICENTER = 272.9860
MEAN_ANOMALY   = 86.9661

EPHEMERIS_TYPE = 0
CLASSIFICATION_TYPE = U
NORAD_CAT_ID   = 63632
ELEMENT_SET_NO = 999
REV_AT_EPOCH   = 25530
BSTAR          = .21248408E-3
MEAN_MOTION_DOT = .17741E-3
MEAN_MOTION_DDOT = 0

CCSDS_OMM_VERS = 2.0
CREATION_DATE  = 
ORIGINATOR     = 

OBJECT_NAME    = PROGRESS-MS 31
OBJECT_ID      = 2025-146A
CENTER_NAME    = EARTH
REF_FRAME      = TEME
TIME_SYSTEM    = UTC
MEAN_ELEMENT_THEORY = SGP/SGP4

EPOCH          = 2026-01-12T22:49:23.132352
MEAN_MOTION    = 15.49263082
ECCENTRICITY   = .00077162
INCLINATION    = 51.6330
RA_OF_ASC_NODE = 347.9568
ARG_OF_PERICENTER = 11.8640
MEAN_ANOMALY   = 348.2529

EPHEMERIS_TYPE = 0
CLASSIFICATION_TYPE = U
NORAD_CAT_ID   = 64751
ELEMENT_SET_NO = 999
REV_AT_EPOCH   = 675
BSTAR          = .14124674E-3
MEAN_MOTION_DOT = .7414E-4
MEAN_MOTION_DDOT = 0

CCSDS_OMM_VERS = 2.0
CREATION_DATE  = 
ORIGINATOR     = 

OBJECT_NAME    = TIANZHOU-9
OBJECT_ID      = 2025-149A
CENTER_NAME    = EARTH
REF_FRAME      = TEME
TIME_SYSTEM    = UTC
MEAN_ELEMENT_THEORY = SGP/SGP4

EPOCH          = 2026-01-12T19:57:11.090304
MEAN_MOTION    = 15.60461132
ECCENTRICITY   = .00115103
INCLINATION    = 41.4654
RA_OF_ASC_NODE = 187.7636
ARG_OF_PERICENTER = 272.9860
MEAN_ANOMALY   = 86.9661

EPHEMERIS_TYPE = 0
CLASSIFICATION_TYPE = U
NORAD_CAT_ID   = 64786
ELEMENT_SET_NO = 999
REV_AT_EPOCH   = 25530
BSTAR          = .21248408E-3
MEAN_MOTION_DOT = .17741E-3
MEAN_MOTION_DDOT = 0

CCSDS_OMM_VERS = 2.0
CREATION_DATE  = 
ORIGINATOR     = 

OBJECT_NAME    = CREW DRAGON 11
OBJECT_ID      = 2025-166A
CENTER_NAME    = EARTH
REF_FRAME      = TEME
TIME_SYSTEM    = UTC
MEAN_ELEMENT_THEORY = SGP/SGP4

EPOCH          = 2026-01-12T22:49:23.132352
MEAN_MOTION    = 15.49263082
ECCENTRICITY   = .00077162
INCLINATION    = 51.6330
RA_OF_ASC_NODE = 347.9568
ARG_OF_PERICENTER = 11.8640
MEAN_ANOMALY   = 348.2529

EPHEMERIS_TYPE = 0
CLASSIFICATION_TYPE = U
NORAD_CAT_ID   = 65077
ELEMENT_SET_NO = 999
REV_AT_EPOCH   = 214
BSTAR          = .14124674E-3
MEAN_MOTION_DOT = .7414E-4
MEAN_MOTION_DDOT = 0

CCSDS_OMM_VERS = 2.0
CREATION_DATE  = 
ORIGINATOR     = 

OBJECT_NAME    = DRAGON CRS-33
OBJECT_ID      = 2025-186A
CENTER_NAME    = EARTH
REF_FRAME      = TEME
TIME_SYSTEM    = UTC
MEAN_ELEMENT_THEORY = SGP/SGP4

EPOCH          = 2026-01-12T22:49:23.132352
MEAN_MOTION    = 15.49263082
ECCENTRICITY   = .00077162
INCLINATION    = 51.6330
RA_OF_ASC_NODE = 347.9568
ARG_OF_PERICENTER = 11.8640
MEAN_ANOMALY   = 348.2529

EPHEMERIS_TYPE = 0
CLASSIFICATION_TYPE = U
NORAD_CAT_ID   = 65304
ELEMENT_SET_NO = 999
REV_AT_EPOCH   = 11
BSTAR          = .14124674E-3
MEAN_MOTION_DOT = .7414E-4
MEAN_MOTION_DDOT = 0

CCSDS_OMM_VERS = 2.0
CREATION_DATE  = 
ORIGINATOR     = 

OBJECT_NAME    = PROGRESS-MS 32
OBJECT_ID      = 2025-204A
CENTER_NAME    = EARTH
REF_FRAME      = TEME
TIME_SYSTEM    = UTC
MEAN_ELEMENT_THEORY = SGP/SGP4

EPOCH          = 2026-01-12T22:49:23.132352
MEAN_MOTION    = 15.49263082
ECCENTRICITY   = .00077162
INCLINATION    = 51.6330
RA_OF_ASC_NODE = 347.9568
ARG_OF_PERICENTER = 11.8640
MEAN_ANOMALY   = 348.2529

EPHEMERIS_TYPE = 0
CLASSIFICATION_TYPE = U
NORAD_CAT_ID   = 65586
ELEMENT_SET_NO = 999
REV_AT_EPOCH   = 27
BSTAR          = .14124674E-3
MEAN_MOTION_DOT = .7414E-4
MEAN_MOTION_DDOT = 0

