ISS (ZARYA)             
1 25544U 98067A   26012.95096218  .00007414  00000+0  14125-3 0  9992
2 25544  51.6330 347.9568 0007716  11.8640 348.2529 15.49263082547697
CSS (TIANHE)            
1 48274U 21035A   26012.83137836  .00017741  00000+0  21248-3 0  9995
2 48274  41.4654 187.7636 0011510 272.9860  86.9661 15.60461132268888
ISS (NAUKA)             
1 49044U 21066A   26012.95096218  .00007414  00000+0  14125-3 0  9998
2 49044  51.6330 347.9568 0007716  11.8640 348.2529 15.49263082230440
FREGAT DEB              
1 49271U 11037PF  26012.57254324  .00036999  00000+0  74550-1 0  9995
2 49271  51.6020 108.2072 0888030 291.8373  59.0368 12.35617232205740
CSS (WENTIAN)           
1 53239U 22085A   26012.83137836  .00017741  00000+0  21248-3 0  9998
2 53239  41.4654 187.7636 0011510 272.9860  86.9661 15.60461132173846
CSS (MENGTIAN)          
1 54216U 22143A   26012.83137836  .00017741  00000+0  21248-3 0  9999
2 54216  41.4654 187.7636 0011510 272.9860  86.9661 15.60461132158643
SHENZHOU-20 (SZ-20)     
1 63632U 25082A   26012.83137836  .00017741  00000+0  21248-3 0  9996
2 63632  41.4654 187.7636 0011510 272.9860  86.9661 15.60461132255306
PROGRESS-MS 31          
1 64751U 25146A   26012.95096218  .00007414  00000+0  14125-3 0  9993
2 64751  51.6330 347.9568 0007716  11.8640 348.2529 15.49263082  6757
TIANZHOU-9              
1 64786U 25149A   26012.83137836  .00017741  00000+0  21248-3 0  9991
2 64786  41.4654 187.7636 0011510 272.9860  86.9661 15.60461132255307
CREW DRAGON 11          
1 65077U 25166A   26012.95096218  .00007414  00000+0  14125-3 0  9997
2 65077  51.6330 347.9568 0007716  11.8640 348.2529 15.49263082  2148
DRAGON CRS-33           
1 65304U 25186A   26012.95096218  .00007414  00000+0  14125-3 0  9992
2 65304  51.6330 347.9568 0007716  11.8640 348.2529 15.49263082   116
PROGRESS-MS 32          
1 65586U 25204A   26012.95096218  .00007414  00000+0  14125-3 0  9995
2 65586  51.6330 347.9568 0007716  11.8640 348.2529 15.49263082   275
